STARLINK-2618           
1 48693U 21044BH  25286.57282075 -.00001254  00000+0 -65300-4 0  9991
2 48693  53.0558  22.0528 0001522 107.7026 252.4129 15.06396363242094
STARLINK-2748           
1 48694U 21044BJ  25286.67370264  .00006500  00000+0  45460-3 0  9992
2 48694  53.0533  26.5882 0001270  95.7326 264.3808 15.06419908242030
STARLINK-2616           
1 48695U 21044BK  25286.56407049  .00002065  00000+0  15734-3 0  9996
2 48695  53.0561  27.1400 0001442  85.7101 274.4053 15.06429483242028
STARLINK-2753           
1 48696U 21044BL  25286.68711083  .00015304  00000+0  10432-2 0  9995
2 48696  53.0531  31.5847 0001420  98.0783 262.0367 15.06430434241971
ONEWEB-0211             
1 48767U 21045A   25286.80308416  .00000094  00000+0  21296-3 0  9992
2 48767  87.8982 308.2979 0001964 103.4313 256.7037 13.16085944212038
ONEWEB-0223             
1 48768U 21045B   25286.99570235  .00000033  00000+0  54603-4 0  9995
2 48768  87.8976 308.3158 0001827 108.9096 251.2232 13.15548645212036
ONEWEB-0230             
1 48769U 21045C   25286.81506255  .00000122  00000+0  28955-3 0  9997
2 48769  87.8966 308.3840 0001713  91.7319 268.4008 13.15547678212277
ONEWEB-0237             
1 48770U 21045D   25286.49974533  .00000084  00000+0  18783-3 0  9996
2 48770  87.8972 308.4447 0001740 102.8970 257.2355 13.15547968211954
ONEWEB-0235             
1 48771U 21045E   25286.93073659 -.00000034  00000+0 -12412-3 0  9995
2 48771  87.8976 308.3298 0001782 109.8600 250.2723 13.15548299212002
ONEWEB-0242             
1 48772U 21045F   25287.00045078 -.00000009  00000+0 -58488-4 0  9995
2 48772  87.8984 308.3046 0001684  97.3089 262.8233 13.15546889212059
ONEWEB-0241             
1 48773U 21045G   25286.98778018  .00000095  00000+0  21909-3 0  9999
2 48773  87.8971 308.3510 0002071 105.6768 254.4591 13.15546965211968
ONEWEB-0243             
1 48774U 21045H   25286.48706308 -.00000054  00000+0 -17871-3 0  9998
2 48774  87.8980 308.4566 0001651 105.6878 254.4435 13.15547688211922
ONEWEB-0222             
1 48775U 21045J   25286.92677605 -.00000051  00000+0 -16846-3 0  9993
2 48775  87.8981 308.3207 0001846  98.9731 261.1608 13.15548462212023
ONEWEB-0244             
1 48776U 21045K   25286.80079587 -.00000012  00000+0 -67202-4 0  9996
2 48776  87.8983 308.3301 0001795  98.9030 261.2304 13.15546740212577
ONEWEB-0247             
1 48777U 21045L   25286.49340172 -.00000011  00000+0 -63773-4 0  9991
2 48777  87.8969 308.4566 0001586 127.6592 232.4682 13.15547930211971
ONEWEB-0245             
1 48778U 21045M   25286.79288016 -.00000035  00000+0 -12832-3 0  9998
2 48778  87.8971 308.3606 0002026  98.4351 261.7009 13.15548628211981
ONEWEB-0229             
1 48779U 21045N   25286.94023858 -.00000111  00000+0 -32987-3 0  9995
2 48779  87.8973 308.3306 0001703  96.2725 263.8599 13.15547887212033
ONEWEB-0228             
1 48780U 21045P   25286.82154339  .00000133  00000+0  31830-3 0  9991
2 48780  87.8979 308.3324 0001816  97.8190 262.3146 13.15548193211930
ONEWEB-0232             
1 48781U 21045Q   25286.79605267  .00000038  00000+0  67980-4 0  9999
2 48781  87.8977 308.3283 0001841  95.4443 264.6898 13.15549332212257
ONEWEB-0231             
1 48782U 21045R   25286.92598512 -.00000096  00000+0 -28831-3 0  9996
2 48782  87.8972 308.3527 0001688 103.1944 256.9375 13.15547879211961
ONEWEB-0234             
1 48783U 21045S   25286.81175896  .00000069  00000+0  14848-3 0  9992
2 48783  87.8975 308.3463 0002700  89.1180 271.0259 13.15548667212084
ONEWEB-0238             
1 48784U 21045T   25286.81203422  .00000072  00000+0  15629-3 0  9992
2 48784  87.8972 308.3412 0002229  90.8120 269.3266 13.15547085211984
