OBJECT_NAME,OBJECT_ID,NORAD_CAT_ID,EPOCH,MEAN_MOTION,ECCENTRICITY,INCLINATION,RA_OF_ASC_NODE,ARG_OF_PERICENTER,MEAN_ANOMALY,MEAN_MOTION_DOT,MEAN_MOTION_DDOT,REV_AT_EPOCH,BSTAR,orbital_period_min,altitude_estimated,drag_index,energy_index,orbit_type,orbit_family,anomaly_score,anomaly_flag
STARLINK-2618,2021-044BH,48693,2025-10-13 13:44:51.712800,15.06396363,0.00015228,53.0558,22.0528,107.7026,252.4129,-1.254e-05,0.0,24209,-6.5299921e-05,95.59237099671623,554.3597048418796,-9.943871969880002e-09,0.0022033905750322704,LEO,LEO,-0.26128776334931014,1
STARLINK-2748,2021-044BJ,48694,2025-10-13 16:10:07.908096,15.06419908,0.00012707,53.0533,26.5882,95.7326,264.3808,6.5e-05,0.0,24203,0.00045460236,95.59087690973345,554.2875434575071,5.7766321885199996e-08,0.0022033216985850243,LEO,LEO,-0.2636332288007685,1
STARLINK-2616,2021-044BK,48695,2025-10-13 13:32:15.690336,15.06429483,0.00014424,53.0561,27.14,85.7101,274.4053,2.065e-05,0.0,24202,0.00015734396,95.59026932560374,554.2581982633592,2.2695292790399996e-08,0.002203293689656023,LEO,LEO,-0.26398109483887366,1
STARLINK-2753,2021-044BL,48696,2025-10-13 16:29:26.375712,15.06430434,0.000142,53.0531,31.5847,98.0783,262.0367,0.00015304,0.0,24197,0.0010431865,95.59020898007164,554.2552836819341,1.48132483e-07,0.0022032909078061745,LEO,LEO,-0.25900450950608106,1
ONEWEB-0211,2021-045A,48767,2025-10-13 19:16:26.471424,13.16085944,0.00019646,87.8982,308.2979,103.4313,256.7037,9.4e-07,0.0,21203,0.00021296015,109.41534681415912,1206.8442374735023,4.1838151069e-08,0.0028866990061879633,LEO,LEO,-0.20081864761618035,1
ONEWEB-0223,2021-045B,48768,2025-10-13 23:53:48.683040,13.15548645,0.00018272,87.8976,308.3158,108.9096,251.2232,3.3e-07,0.0,21203,5.4603269e-05,109.46003444821305,1208.907402548508,9.977109311680001e-09,0.0028890574704388476,LEO,LEO,-0.20248882039716426,1
ONEWEB-0230,2021-045C,48769,2025-10-13 19:33:41.404320,13.15547678,0.00017131,87.8966,308.384,91.7319,268.4008,1.22e-06,0.0,21227,0.00028954871,109.46011490736711,1208.9111169809994,4.9602589510100005e-08,0.002889061717673132,LEO,LEO,-0.1990395900024326,1
ONEWEB-0237,2021-045D,48770,2025-10-13 11:59:37.996512,13.15547968,0.00017404,87.8972,308.4447,102.897,257.2355,8.4e-07,0.0,21195,0.00018783098,109.46009077792898,1208.9100030348936,3.2690103759200005e-08,0.002889060443941081,LEO,LEO,-0.2015815138295835,1
ONEWEB-0235,2021-045E,48771,2025-10-13 22:20:15.641376,13.15548299,0.00017826,87.8976,308.3298,109.86,250.2723,-3.4e-07,0.0,21200,-0.00012412039,109.46006323710051,1208.9087316003552,-2.21257007214e-08,0.002889058990130701,LEO,LEO,-0.20041109670064322,1
ONEWEB-0242,2021-045F,48772,2025-10-14 00:00:38.947392,13.15546889,0.0001684,87.8984,308.3046,97.3089,262.8233,-9e-08,0.0,21205,-5.8488203e-05,109.46018055613372,1208.914147684718,-9.8494133852e-09,0.0028890651831070106,LEO,LEO,-0.20425876148108085,1
ONEWEB-0241,2021-045G,48773,2025-10-13 23:42:24.207552,13.15546965,0.00020711,87.8971,308.351,105.6768,254.4591,9.5e-07,0.0,21196,0.00021909073,109.4601742325482,1208.9138557536835,4.53758810903e-08,0.002889064849300687,LEO,LEO,-0.19853439561808872,1
ONEWEB-0243,2021-045H,48774,2025-10-13 11:41:22.250112,13.15547688,0.0001651,87.898,308.4566,105.6878,254.4435,-5.4e-07,0.0,21192,-0.00017871089,109.46011407531735,1208.9110785690573,-2.9505167938999998e-08,0.002889061673751323,LEO,LEO,-0.20008619852194998,1
ONEWEB-0222,2021-045J,48775,2025-10-13 22:14:33.450720,13.15548462,0.00018465,87.8981,308.3207,98.9731,261.1608,-5.1e-07,0.0,21202,-0.00016845854,109.46004967470367,1208.9081054862618,-3.1105869410999995e-08,0.0028890582742063546,LEO,LEO,-0.2018170301642877,1
ONEWEB-0244,2021-045K,48776,2025-10-13 19:13:08.763168,13.1554674,0.00017959,87.8983,308.3301,98.903,261.2304,-1.2e-07,0.0,21257,-6.7202297e-05,109.46019295369165,1208.9147200232774,-1.2068860518230001e-08,0.0028890658375432593,LEO,LEO,-0.2035557698388945,1
ONEWEB-0247,2021-045L,48777,2025-10-13 11:50:29.908608,13.1554793,0.00015865,87.8969,308.4566,127.6592,232.4682,-1.1e-07,0.0,21197,-6.3772854e-05,109.46009393971681,1208.9101490002222,-1.01175632871e-08,0.002889060610843854,LEO,LEO,-0.19640749706336685,1
ONEWEB-0245,2021-045M,48778,2025-10-13 19:01:44.845824,13.15548628,0.00020269,87.8971,308.3606,98.4351,261.7009,-3.5e-07,0.0,21198,-0.00012832327,109.4600358626956,1208.9074678487286,-2.6009843596299997e-08,0.00288905754510576,LEO,LEO,-0.2016864081434162,1
ONEWEB-0229,2021-045N,48779,2025-10-13 22:33:56.613312,13.15547887,0.00017032,87.8973,308.3306,96.2725,263.8599,-1.11e-06,0.0,21203,-0.00032987092,109.46009751752959,1208.9103141715232,-5.6183615094400004e-08,0.0028890607997075347,LEO,LEO,-0.19879462907781997,1
ONEWEB-0228,2021-045P,48780,2025-10-13 19:43:01.348896,13.15548193,0.00018163,87.8979,308.3324,97.819,262.3146,1.33e-06,0.0,21193,0.00031830463,109.4600720568205,1208.909138766644,5.7813669946900006e-08,0.002889059455701277,LEO,LEO,-0.20034937525815588,1
ONEWEB-0232,2021-045Q,48781,2025-10-13 19:06:18.950688,13.15549332,0.00018413,87.8977,308.3283,95.4443,264.6898,3.8e-07,0.0,21225,6.7980194e-05,109.45997728650741,1208.9047636524901,1.2517193121219998e-08,0.00288905445301956,LEO,LEO,-0.20503884892136487,1
ONEWEB-0231,2021-045R,48782,2025-10-13 22:13:25.114368,13.15547879,0.00016889,87.8972,308.3527,103.1944,256.9375,-9.6e-07,0.0,21196,-0.0002883053,109.46009818316921,1208.9103449010681,-4.869188211699999e-08,0.002889060834844966,LEO,LEO,-0.20014676251091212,1
ONEWEB-0234,2021-045S,48783,2025-10-13 19:28:55.974144,13.15548667,0.00027007,87.8975,308.3463,89.118,271.0259,6.9e-07,0.0,21208,0.00014848458,109.46003261770626,1208.9073180423393,4.0101230520600005e-08,0.002889057373811082,LEO,LEO,-0.19884161147351548,1
ONEWEB-0238,2021-045T,48784,2025-10-13 19:29:19.756608,13.15547085,0.00022295,87.8972,308.3412,90.812,269.3266,7.2e-07,0.0,21198,0.00015629262,109.460164247941,1208.9133948100007,3.4845439629e-08,0.00288906432223819,LEO,LEO,-0.20045241750439763,1
